#dV2023  1 13 22  0  0.00000000    1682       CTS   FIT  GFZ
## 2244 511200.00000000    30.00000000 59957 0.9166666666667
+    1   L64  0  0  0  0  0  0  0  0  0  0  0  0  0  0  0  0
+          0  0  0  0  0  0  0  0  0  0  0  0  0  0  0  0  0
+          0  0  0  0  0  0  0  0  0  0  0  0  0  0  0  0  0
+          0  0  0  0  0  0  0  0  0  0  0  0  0  0  0  0  0
+          0  0  0  0  0  0  0  0  0  0  0  0  0  0  0  0  0
++         0  0  0  0  0  0  0  0  0  0  0  0  0  0  0  0  0
++         0  0  0  0  0  0  0  0  0  0  0  0  0  0  0  0  0
++         0  0  0  0  0  0  0  0  0  0  0  0  0  0  0  0  0
++         0  0  0  0  0  0  0  0  0  0  0  0  0  0  0  0  0
++         0  0  0  0  0  0  0  0  0  0  0  0  0  0  0  0  0
%c L  cc GPS ccc cccc cccc cccc cccc ccccc ccccc ccccc ccccc
%c cc cc ccc ccc cccc cccc cccc cccc ccccc ccccc ccccc ccccc
%f  0.0000000  0.000000000  0.00000000000  0.000000000000000
%f  0.0000000  0.000000000  0.00000000000  0.000000000000000
%i    0    0    0    0      0      0      0      0         0
%i    0    0    0    0      0      0      0      0         0
/* CCCCCCCCCCCCCCCCCCCCCCCCCCCCCCCCCCCCCCCCCCCCCCCCCCCCCCCCCCCCCCCCCCCCCCCCCCCCC
/* C                             GFZ RSO-ORBIT                                 C
/* C DOI: https://doi.org/10.5880/GFZ_ORBIT/RSO/L64_G_v02                      C
/* C                                                                           C
/* C DORIS        RMS: not applicable                                          C
/* C GNSS-E Code  RMS: not applicable                                          C
/* C GNSS-E Phase RMS: not applicable                                          C
/* C GNSS-G Code  RMS:  50.662 [cm]   Obs.acc.:     14361 Obs.eli.:       910  C
/* C GNSS-G Phase RMS:   4.265 [mm]   Obs.acc.:     14361 Obs.eli.:       910  C
/* C SLR          RMS:   0.731 [cm]   Obs.acc.:        32 Obs.eli.:         0  C
/* C                                                                           C
/* CCCCCCCCCCCCCCCCCCCCCCCCCCCCCCCCCCCCCCCCCCCCCCCCCCCCCCCCCCCCCCCCCCCCCCCCCCCCC
*  2023  1 14  7 46 30.00000000
PL64  -4259.941894   3679.347617  -3941.793310   3543.605092
VL64 -31460.340415  30434.719087  62336.208700 999999.999999
*  2023  1 14  7 47  0.00000000
PL64  -4351.766379   3768.814720  -3752.636292   3544.064474
VL64 -29751.226777  29203.265975  63756.868738 999999.999999
*  2023  1 14  7 47 30.00000000
PL64  -4438.421748   3854.527329  -3559.322494   3544.523515
VL64 -28014.607521  27931.931282  65107.134475 999999.999999
*  2023  1 14  7 48  0.00000000
PL64  -4519.828599   3936.367706  -3362.065408   3544.982708
VL64 -26252.563393  26621.995798  66385.479952 999999.999999
*  2023  1 14  7 48 30.00000000
PL64  -4595.913808   4014.222036  -3161.082982   3545.441877
VL64 -24467.199341  25274.793853  67590.460505 999999.999999
*  2023  1 14  7 49  0.00000000
PL64  -4666.610600   4087.980586  -2956.597375   3545.901321
VL64 -22660.640701  23891.710400  68720.713618 999999.999999
*  2023  1 14  7 49 30.00000000
PL64  -4731.858601   4157.537849  -2748.834712   3546.360705
VL64 -20835.030926  22474.179784  69774.957578 999999.999999
*  2023  1 14  7 50  0.00000000
PL64  -4791.603895   4222.792700  -2538.024842   3546.819786
VL64 -18992.531483  21023.686683  70751.992007 999999.999999
*  2023  1 14  7 50 30.00000000
PL64  -4845.799078   4283.648540  -2324.401087   3547.279074
VL64 -17135.320553  19541.765994  71650.702471 999999.999999
*  2023  1 14  7 51  0.00000000
PL64  -4894.403297   4340.013449  -2108.199979   3547.738247
VL64 -15265.588739  18029.999827  72470.064564 999999.999999
*  2023  1 14  7 51 30.00000000
PL64  -4937.382288   4391.800318  -1889.660985   3548.197449
VL64 -13385.534935  16490.014085  73209.144585 999999.999999
*  2023  1 14  7 52  0.00000000
PL64  -4974.708389   4438.926980  -1669.026240   3548.656716
VL64 -11497.363743  14923.476193  73867.099494 999999.999999
*  2023  1 14  7 52 30.00000000
PL64  -5006.360561   4481.316329  -1446.540268   3549.115888
VL64  -9603.283321  13332.093488  74443.177250 999999.999999
*  2023  1 14  7 53  0.00000000
PL64  -5032.324390   4518.896441  -1222.449716   3549.574756
VL64  -7705.503423  11717.612359  74936.717929 999999.999999
*  2023  1 14  7 53 30.00000000
PL64  -5052.592091   4551.600688   -997.003066   3550.033825
VL64  -5806.232478  10081.816975  75347.156219 999999.999999
*  2023  1 14  7 54  0.00000000
PL64  -5067.162497   4579.367847   -770.450353   3550.492684
VL64  -3907.673345   8426.526500  75674.023195 999999.999999
*  2023  1 14  7 54 30.00000000
PL64  -5076.041036   4602.142202   -543.042875   3550.951791
VL64  -2012.019115   6753.592062  75916.945084 999999.999999
*  2023  1 14  7 55  0.00000000
PL64  -5079.239700   4619.873637   -315.032911   3551.411000
VL64   -121.452737   5064.896260  76075.641998 999999.999999
*  2023  1 14  7 55 30.00000000
PL64  -5076.777013   4632.517729    -86.673433   3551.870257
VL64   1761.853768   3362.350278  76149.932388 999999.999999
*  2023  1 14  7 56  0.00000000
PL64  -5068.677993   4640.035821    141.782191   3552.329466
VL64   3635.745042   1647.887459  76139.734125 999999.999999
*  2023  1 14  7 56 30.00000000
PL64  -5054.974094   4642.395090    370.080493   3552.788710
VL64   5498.085678    -76.538278  76045.060722 999999.999999
*  2023  1 14  7 57  0.00000000
PL64  -5035.703145   4639.568603    597.968187   3553.247881
VL64   7346.761262  -1808.952300  75866.021795 999999.999999
*  2023  1 14  7 57 30.00000000
PL64  -5010.909283   4631.535380    825.192462   3553.707203
VL64   9179.681483  -3547.361748  75602.824206 999999.999999
*  2023  1 14  7 58  0.00000000
PL64  -4980.642875   4618.280445   1051.501274   3554.166535
VL64  10994.783602  -5289.758403  75255.771731 999999.999999
*  2023  1 14  7 58 30.00000000
PL64  -4944.960433   4599.794863   1276.643634   3554.625795
VL64  12790.034873  -7034.121841  74825.264567 999999.999999
*  2023  1 14  7 59  0.00000000
PL64  -4903.924518   4576.075776   1500.369899   3555.085054
VL64  14563.434824  -8778.422894  74311.798113 999999.999999
*  2023  1 14  7 59 30.00000000
PL64  -4857.603642   4547.126424   1722.432049   3555.544485
VL64  16313.017725 -10520.625425  73715.960991 999999.999999
*  2023  1 14  8  0  0.00000000
PL64  -4806.072159   4512.956164   1942.583973   3556.003756
VL64  18036.854852 -12258.687467  73038.434553 999999.999999
*  2023  1 14  8  0 30.00000000
PL64  -4749.410150   4473.580484   2160.581739   3556.462988
VL64  19733.056883 -13990.564116  72279.993049 999999.999999
*  2023  1 14  8  1  0.00000000
PL64  -4687.703302   4429.021009   2376.183879   3556.922576
VL64  21399.776245 -15714.210748  71441.502444 999999.999999
*  2023  1 14  8  1 30.00000000
PL64  -4621.042780   4379.305492   2589.151657   3557.382342
VL64  23035.209061 -17427.585631  70523.918787 999999.999999
*  2023  1 14  8  2  0.00000000
PL64  -4549.525094   4324.467804   2799.249340   3557.842187
VL64  24637.596883 -19128.652482  69528.286916 999999.999999
*  2023  1 14  8  2 30.00000000
PL64  -4473.251957   4264.547913   3006.244460   3558.301849
VL64  26205.228572 -20815.383172  68455.739201 999999.999999
*  2023  1 14  8  3  0.00000000
PL64  -4392.330142   4199.591859   3209.908075   3558.761410
VL64  27736.442315 -22485.760243  67307.494075 999999.999999
*  2023  1 14  8  3 30.00000000
PL64  -4306.871333   4129.651710   3410.015027   3559.220920
VL64  29229.627685 -24137.779419  66084.854481 999999.999999
*  2023  1 14  8  4  0.00000000
PL64  -4216.991963   4054.785529   3606.344190   3559.680367
VL64  30683.227662 -25769.452442  64789.205827 999999.999999
*  2023  1 14  8  4 30.00000000
PL64  -4122.813057   3975.057312   3798.678715   3560.139933
VL64  32095.739797 -27378.809775  63422.012895 999999.999999
*  2023  1 14  8  5  0.00000000
PL64  -4024.460063   3890.536936   3986.806263   3560.599367
VL64  33465.715679 -28963.901990  61984.817954 999999.999999
*  2023  1 14  8  5 30.00000000
PL64  -3922.062693   3801.300094   4170.519239   3561.058398
VL64  34791.762692 -30522.801130  60479.241619 999999.999999
*  2023  1 14  8  6  0.00000000
PL64  -3815.754749   3707.428226   4349.615027   3561.517057
VL64  36072.548859 -32053.604152  58906.981308 999999.999999
*  2023  1 14  8  6 30.00000000
PL64  -3705.673933   3609.008441   4523.896210   3561.974985
VL64  37306.804829 -33554.436499  57269.806561 999999.999999
*  2023  1 14  8  7  0.00000000
PL64  -3591.961660   3506.133423   4693.170787   3562.432430
VL64  38493.323152 -35023.454238  55569.555201 999999.999999
*  2023  1 14  8  7 30.00000000
PL64  -3474.762880   3398.901343   4857.252367   3562.888111
VL64  39630.957495 -36458.845143  53808.131457 999999.999999
*  2023  1 14  8  8  0.00000000
PL64  -3354.225885   3287.415759   5015.960372   3563.344408
VL64  40718.623698 -37858.830261  51987.505764 999999.999999
*  2023  1 14  8  8 30.00000000
PL64  -3230.502127   3171.785512   5169.120232   3563.802095
VL64  41755.302508 -39221.666775  50109.712693 999999.999999
*  2023  1 14  8  9  0.00000000
PL64  -3103.746013   3052.124613   5316.563573   3564.260608
VL64  42740.040481 -40545.650361  48176.846910 999999.999999
*  2023  1 14  8  9 30.00000000
PL64  -2974.114715   2928.552128   5458.128391   3564.719557
VL64  43671.949695 -41829.116849  46191.060523 999999.999999
*  2023  1 14  8 10  0.00000000
PL64  -2841.767968   2801.192052   5593.659221   3565.178723
VL64  44550.208301 -43070.444053  44154.560937 999999.999999
*  2023  1 14  8 10 30.00000000
PL64  -2706.867874   2670.173183   5723.007302   3565.638078
VL64  45374.060783 -44268.053444  42069.608175 999999.999999
*  2023  1 14  8 11  0.00000000
PL64  -2569.578701   2535.628984   5846.030727   3566.097422
VL64  46142.818087 -45420.411876  39938.513224 999999.999999
*  2023  1 14  8 11 30.00000000
PL64  -2430.066684   2397.697450   5962.594597   3566.556674
VL64  46855.859342 -46526.034111  37763.635963 999999.999999
EOF
